[{"OBJECT_NAME":"KUIPER-00008","OBJECT_ID":"2025-088A","EPOCH":"2026-03-06T14:00:01.000224","MEAN_MOTION":14.91926835,"ECCENTRICITY":0.00099667,"INCLINATION":51.8942,"RA_OF_ASC_NODE":101.3856,"ARG_OF_PERICENTER":89.2492,"MEAN_ANOMALY":194.2822,"EPHEMERIS_TYPE":0,"CLASSIFICATION_TYPE":"U","NORAD_CAT_ID":63724,"ELEMENT_SET_NO":999,"REV_AT_EPOCH":568,"BSTAR":-0.11413121,"MEAN_MOTION_DOT":-0.01078313,"MEAN_MOTION_DDOT":0},{"OBJECT_NAME":"KUIPER-00009","OBJECT_ID":"2025-088B","EPOCH":"2026-03-06T09:45:22.696416","MEAN_MOTION":14.79900721,"ECCENTRICITY":0.00078372,"INCLINATION":51.9023,"RA_OF_ASC_NODE":121.1575,"ARG_OF_PERICENTER":87.5205,"MEAN_ANOMALY":272.6654,"EPHEMERIS_TYPE":0,"CLASSIFICATION_TYPE":"U","NORAD_CAT_ID":63725,"ELEMENT_SET_NO":999,"REV_AT_EPOCH":4729,"BSTAR":0.00052775902,"MEAN_MOTION_DOT":3.801e-5,"MEAN_MOTION_DDOT":0},{"OBJECT_NAME":"KUIPER-00010","OBJECT_ID":"2025-088C","EPOCH":"2026-03-06T11:11:20.689152","MEAN_MOTION":14.79926607,"ECCENTRICITY":7.141e-5,"INCLINATION":51.9024,"RA_OF_ASC_NODE":97.3463,"ARG_OF_PERICENTER":82.5186,"MEAN_ANOMALY":277.5858,"EPHEMERIS_TYPE":0,"CLASSIFICATION_TYPE":"U","NORAD_CAT_ID":63726,"ELEMENT_SET_NO":999,"REV_AT_EPOCH":4725,"BSTAR":-5.8883513e-5,"MEAN_MOTION_DOT":-6.7e-6,"MEAN_MOTION_DDOT":0},{"OBJECT_NAME":"KUIPER-00011","OBJECT_ID":"2025-088D","EPOCH":"2026-03-06T15:02:21.643296","MEAN_MOTION":14.79831426,"ECCENTRICITY":8.115e-5,"INCLINATION":51.8999,"RA_OF_ASC_NODE":104.2002,"ARG_OF_PERICENTER":91.9766,"MEAN_ANOMALY":268.1289,"EPHEMERIS_TYPE":0,"CLASSIFICATION_TYPE":"U","NORAD_CAT_ID":63727,"ELEMENT_SET_NO":999,"REV_AT_EPOCH":4730,"BSTAR":-0.0022348282,"MEAN_MOTION_DOT":-0.00017173,"MEAN_MOTION_DDOT":0},{"OBJECT_NAME":"KUIPER-00012","OBJECT_ID":"2025-088E","EPOCH":"2026-03-06T14:00:01.000224","MEAN_MOTION":14.79890738,"ECCENTRICITY":6.281e-5,"INCLINATION":51.8995,"RA_OF_ASC_NODE":89.3156,"ARG_OF_PERICENTER":50.8792,"MEAN_ANOMALY":171.1046,"EPHEMERIS_TYPE":0,"CLASSIFICATION_TYPE":"U","NORAD_CAT_ID":63728,"ELEMENT_SET_NO":999,"REV_AT_EPOCH":413,"BSTAR":0.0027244368,"MEAN_MOTION_DOT":0.00020591,"MEAN_MOTION_DDOT":0},{"OBJECT_NAME":"KUIPER-00013","OBJECT_ID":"2025-088F","EPOCH":"2026-03-06T12:58:14.501568","MEAN_MOTION":14.80030126,"ECCENTRICITY":0.00025289,"INCLINATION":51.9003,"RA_OF_ASC_NODE":122.0212,"ARG_OF_PERICENTER":45.3622,"MEAN_ANOMALY":314.7546,"EPHEMERIS_TYPE":0,"CLASSIFICATION_TYPE":"U","NORAD_CAT_ID":63729,"ELEMENT_SET_NO":999,"REV_AT_EPOCH":4710,"BSTAR":0.00088493287,"MEAN_MOTION_DOT":6.547e-5,"MEAN_MOTION_DDOT":0},{"OBJECT_NAME":"KUIPER-00014","OBJECT_ID":"2025-088G","EPOCH":"2026-03-06T09:41:18.317472","MEAN_MOTION":14.79879835,"ECCENTRICITY":4.536e-5,"INCLINATION":51.9012,"RA_OF_ASC_NODE":123.5991,"ARG_OF_PERICENTER":23.2771,"MEAN_ANOMALY":336.8211,"EPHEMERIS_TYPE":0,"CLASSIFICATION_TYPE":"U","NORAD_CAT_ID":63730,"ELEMENT_SET_NO":999,"REV_AT_EPOCH":4688,"BSTAR":-0.0014531711,"MEAN_MOTION_DOT":-0.00011266,"MEAN_MOTION_DDOT":0},{"OBJECT_NAME":"KUIPER-00015","OBJECT_ID":"2025-088H","EPOCH":"2026-03-06T08:31:02.648928","MEAN_MOTION":14.83618137,"ECCENTRICITY":0.00097129,"INCLINATION":51.8984,"RA_OF_ASC_NODE":133.1668,"ARG_OF_PERICENTER":63.6853,"MEAN_ANOMALY":296.5107,"EPHEMERIS_TYPE":0,"CLASSIFICATION_TYPE":"U","NORAD_CAT_ID":63731,"ELEMENT_SET_NO":999,"REV_AT_EPOCH":4720,"BSTAR":0.00078978327,"MEAN_MOTION_DOT":6.358e-5,"MEAN_MOTION_DDOT":0},{"OBJECT_NAME":"KUIPER-00016","OBJECT_ID":"2025-088J","EPOCH":"2026-03-06T12:52:17.654880","MEAN_MOTION":14.79879781,"ECCENTRICITY":0.00067084,"INCLINATION":51.8985,"RA_OF_ASC_NODE":125.5437,"ARG_OF_PERICENTER":65.35,"MEAN_ANOMALY":294.816,"EPHEMERIS_TYPE":0,"CLASSIFICATION_TYPE":"U","NORAD_CAT_ID":63732,"ELEMENT_SET_NO":999,"REV_AT_EPOCH":4686,"BSTAR":0.00082724616,"MEAN_MOTION_DOT":6.084e-5,"MEAN_MOTION_DDOT":0},{"OBJECT_NAME":"KUIPER-00018","OBJECT_ID":"2025-088K","EPOCH":"2026-03-06T14:00:01.000224","MEAN_MOTION":14.79822304,"ECCENTRICITY":0.0001258,"INCLINATION":51.9008,"RA_OF_ASC_NODE":114.3046,"ARG_OF_PERICENTER":115.3041,"MEAN_ANOMALY":70.0483,"EPHEMERIS_TYPE":0,"CLASSIFICATION_TYPE":"U","NORAD_CAT_ID":63733,"ELEMENT_SET_NO":999,"REV_AT_EPOCH":327,"BSTAR":0.0070228949,"MEAN_MOTION_DOT":0.00053604,"MEAN_MOTION_DDOT":0},{"OBJECT_NAME":"KUIPER-00019","OBJECT_ID":"2025-088L","EPOCH":"2026-03-06T09:57:02.150208","MEAN_MOTION":14.79940179,"ECCENTRICITY":5.536e-5,"INCLINATION":51.9008,"RA_OF_ASC_NODE":113.5786,"ARG_OF_PERICENTER":80.6313,"MEAN_ANOMALY":279.4712,"EPHEMERIS_TYPE":0,"CLASSIFICATION_TYPE":"U","NORAD_CAT_ID":63734,"ELEMENT_SET_NO":999,"REV_AT_EPOCH":4702,"BSTAR":5.7637881e-5,"MEAN_MOTION_DOT":2.18e-6,"MEAN_MOTION_DDOT":0},{"OBJECT_NAME":"KUIPER-00020","OBJECT_ID":"2025-088M","EPOCH":"2026-03-06T13:06:16.876224","MEAN_MOTION":14.79922119,"ECCENTRICITY":0.00071626,"INCLINATION":51.9003,"RA_OF_ASC_NODE":116.991,"ARG_OF_PERICENTER":72.6151,"MEAN_ANOMALY":287.5594,"EPHEMERIS_TYPE":0,"CLASSIFICATION_TYPE":"U","NORAD_CAT_ID":63735,"ELEMENT_SET_NO":999,"REV_AT_EPOCH":4719,"BSTAR":0.0018327326,"MEAN_MOTION_DOT":0.00013779,"MEAN_MOTION_DDOT":0},{"OBJECT_NAME":"KUIPER-00021","OBJECT_ID":"2025-088N","EPOCH":"2026-03-06T13:03:49.696416","MEAN_MOTION":14.79935485,"ECCENTRICITY":0.00035444,"INCLINATION":51.8998,"RA_OF_ASC_NODE":117.9933,"ARG_OF_PERICENTER":75.3971,"MEAN_ANOMALY":284.7384,"EPHEMERIS_TYPE":0,"CLASSIFICATION_TYPE":"U","NORAD_CAT_ID":63736,"ELEMENT_SET_NO":999,"REV_AT_EPOCH":4701,"BSTAR":0.00069807746,"MEAN_MOTION_DOT":5.105e-5,"MEAN_MOTION_DDOT":0},{"OBJECT_NAME":"KUIPER-00023","OBJECT_ID":"2025-088P","EPOCH":"2026-03-06T13:02:19.316832","MEAN_MOTION":14.79895054,"ECCENTRICITY":0.00084449,"INCLINATION":51.8991,"RA_OF_ASC_NODE":119.4588,"ARG_OF_PERICENTER":87.4228,"MEAN_ANOMALY":272.7701,"EPHEMERIS_TYPE":0,"CLASSIFICATION_TYPE":"U","NORAD_CAT_ID":63737,"ELEMENT_SET_NO":999,"REV_AT_EPOCH":4729,"BSTAR":0.00053229755,"MEAN_MOTION_DOT":3.836e-5,"MEAN_MOTION_DDOT":0},{"OBJECT_NAME":"KUIPER-00024","OBJECT_ID":"2025-088Q","EPOCH":"2026-03-06T10:07:09.030720","MEAN_MOTION":14.79963892,"ECCENTRICITY":0.0001164,"INCLINATION":51.9023,"RA_OF_ASC_NODE":107.5645,"ARG_OF_PERICENTER":84.8305,"MEAN_ANOMALY":275.279,"EPHEMERIS_TYPE":0,"CLASSIFICATION_TYPE":"U","NORAD_CAT_ID":63738,"ELEMENT_SET_NO":999,"REV_AT_EPOCH":4757,"BSTAR":-0.0018119147,"MEAN_MOTION_DOT":-0.00014016,"MEAN_MOTION_DDOT":0},{"OBJECT_NAME":"KUIPER-00025","OBJECT_ID":"2025-088R","EPOCH":"2026-03-06T12:41:13.686432","MEAN_MOTION":14.83492102,"ECCENTRICITY":3.645e-5,"INCLINATION":51.9014,"RA_OF_ASC_NODE":115.4099,"ARG_OF_PERICENTER":27.726,"MEAN_ANOMALY":332.3723,"EPHEMERIS_TYPE":0,"CLASSIFICATION_TYPE":"U","NORAD_CAT_ID":63739,"ELEMENT_SET_NO":999,"REV_AT_EPOCH":4733,"BSTAR":0.00079581238,"MEAN_MOTION_DOT":6.386e-5,"MEAN_MOTION_DDOT":0}]
