KUIPER-00008            
1 63724U 25088A   26065.58334491 -.01078313  00000+0 -11413+0 0  9994
2 63724  51.8942 101.3856 0009966  89.2492 194.2822 14.91926835  5686
KUIPER-00009            
1 63725U 25088B   26065.40651269  .00003801  00000+0  52776-3 0  9999
2 63725  51.9023 121.1575 0007837  87.5205 272.6654 14.79900721 47293
KUIPER-00010            
1 63726U 25088C   26065.46621168 -.00000670  00000+0 -58884-4 0  9991
2 63726  51.9024  97.3463 0000714  82.5186 277.5858 14.79926607 47252
KUIPER-00011            
1 63727U 25088D   26065.62663939 -.00017173  00000+0 -22348-2 0  9992
2 63727  51.8999 104.2002 0000811  91.9766 268.1289 14.79831426 47300
KUIPER-00012            
1 63728U 25088E   26065.58334491  .00020591  00000+0  27244-2 0  9992
2 63728  51.8995  89.3156 0000628  50.8792 171.1046 14.79890738  4138
KUIPER-00013            
1 63729U 25088F   26065.54044562  .00006547  00000+0  88493-3 0  9995
2 63729  51.9003 122.0212 0002528  45.3622 314.7546 14.80030126 47103
KUIPER-00014            
1 63730U 25088G   26065.40368423 -.00011266  00000+0 -14532-2 0  9995
2 63730  51.9012 123.5991 0000453  23.2771 336.8211 14.79879835 46884
KUIPER-00015            
1 63731U 25088H   26065.35489177  .00006358  00000+0  78978-3 0  9999
2 63731  51.8984 133.1668 0009712  63.6853 296.5107 14.83618137 47200
KUIPER-00016            
1 63732U 25088J   26065.53631545  .00006084  00000+0  82725-3 0  9999
2 63732  51.8985 125.5437 0006708  65.3500 294.8160 14.79879781 46861
KUIPER-00018            
1 63733U 25088K   26065.58334491  .00053604  00000+0  70229-2 0  9990
2 63733  51.9008 114.3046 0001258 115.3041  70.0483 14.79822304  3271
KUIPER-00019            
1 63734U 25088L   26065.41460822  .00000218  00000+0  57638-4 0  9995
2 63734  51.9008 113.5786 0000553  80.6313 279.4712 14.79940179 47029
KUIPER-00020            
1 63735U 25088M   26065.54602866  .00013779  00000+0  18327-2 0  9992
2 63735  51.9003 116.9910 0007162  72.6151 287.5594 14.79922119 47195
KUIPER-00021            
1 63736U 25088N   26065.54432519  .00005105  00000+0  69808-3 0  9994
2 63736  51.8998 117.9933 0003544  75.3971 284.7384 14.79935485 47011
KUIPER-00023            
1 63737U 25088P   26065.54327913  .00003836  00000+0  53230-3 0  9997
2 63737  51.8991 119.4588 0008444  87.4228 272.7701 14.79895054 47298
KUIPER-00024            
1 63738U 25088Q   26065.42163230 -.00014016  00000+0 -18119-2 0  9995
2 63738  51.9023 107.5645 0001164  84.8305 275.2790 14.79963892 47570
KUIPER-00025            
1 63739U 25088R   26065.52863063  .00006386  00000+0  79581-3 0  9998
2 63739  51.9014 115.4099 0000364  27.7260 332.3723 14.83492102 47330
